start=new Date('2023-06-17T00:00:00.000Z').valueOf();
sats=[{"OBJECT_ID":"2021-018BC","RA_OF_ASC_NODE":"26.9996","CLASSIFICATION_TYPE":"U","COUNTRY_CODE":"US","MEAN_MOTION":"15.06407733","EPHEMERIS_TYPE":"0","EPOCH":"2023-06-16T18:18:40.985568","BSTAR":"0.00135710000000","PERIOD":"95.592","OBJECT_TYPE":"PAYLOAD","INCLINATION":"53.0553","ELEMENT_SET_NO":"999","CENTER_NAME":"EARTH","MEAN_MOTION_DDOT":"0.0000000000000","SITE":"AFETR","SEMIMAJOR_AXIS":"6925.325","TLE_LINE1":"1 47837U 21018BC  23167.76297437  .00019994  00000-0  13571-2 0  9996","DECAY_DATE":null,"REF_FRAME":"TEME","GP_ID":"234094512","FILE":"3934949","NORAD_CAT_ID":"47837","RCS_SIZE":"LARGE","PERIAPSIS":"546.484","MEAN_ELEMENT_THEORY":"SGP4","MEAN_ANOMALY":"307.2636","ECCENTRICITY":"0.00010190","APOAPSIS":"547.896","LAUNCH_DATE":"2021-03-11","MEAN_MOTION_DOT":"0.00019994","TLE_LINE2":"2 47837  53.0553  26.9996 0001019  52.8446 307.2636 15.06407733126623","TIME_SYSTEM":"UTC","OBJECT_NAME":"STARLINK-2427","ARG_OF_PERICENTER":"52.8446","REV_AT_EPOCH":"12662"},{"COUNTRY_CODE":"US","CLASSIFICATION_TYPE":"U","RA_OF_ASC_NODE":"46.9364","OBJECT_ID":"2021-018BD","DECAY_DATE":null,"TLE_LINE1":"1 47838U 21018BD  23167.77586317  .00001618  00000-0  12743-3 0  9991","SEMIMAJOR_AXIS":"6925.325","MEAN_MOTION_DDOT":"0.0000000000000","SITE":"AFETR","ELEMENT_SET_NO":"999","CENTER_NAME":"EARTH","INCLINATION":"53.0547","OBJECT_TYPE":"PAYLOAD","PERIOD":"95.592","BSTAR":"0.00012743000000","EPHEMERIS_TYPE":"0","EPOCH":"2023-06-16T18:37:14.577888","MEAN_MOTION":"15.06407593","LAUNCH_DATE":"2021-03-11","APOAPSIS":"547.961","ECCENTRICITY":"0.00011130","MEAN_ELEMENT_THEORY":"SGP4","PERIAPSIS":"546.419","MEAN_ANOMALY":"261.9496","FILE":"3934949","NORAD_CAT_ID":"47838","RCS_SIZE":"LARGE","REF_FRAME":"TEME","GP_ID":"234093274","REV_AT_EPOCH":"12633","ARG_OF_PERICENTER":"98.1619","OBJECT_NAME":"STARLINK-2429","TIME_SYSTEM":"UTC","TLE_LINE2":"2 47838  53.0547  46.9364 0001113  98.1619 261.9496 15.06407593126330","MEAN_MOTION_DOT":"0.00001618"},{"SITE":"AFETR","MEAN_MOTION_DDOT":"0.0000000000000","CENTER_NAME":"EARTH","ELEMENT_SET_NO":"999","SEMIMAJOR_AXIS":"6925.355","TLE_LINE1":"1 47839U 21018BE  23167.87078509  .00002356  00000-0  17703-3 0  9993","DECAY_DATE":null,"MEAN_MOTION":"15.06397825","EPHEMERIS_TYPE":"0","EPOCH":"2023-06-16T20:53:55.831776","PERIOD":"95.592","BSTAR":"0.00017703000000","INCLINATION":"53.0549","OBJECT_TYPE":"PAYLOAD","CLASSIFICATION_TYPE":"U","COUNTRY_CODE":"US","OBJECT_ID":"2021-018BE","RA_OF_ASC_NODE":"16.5149","OBJECT_NAME":"STARLINK-2431","TIME_SYSTEM":"UTC","REV_AT_EPOCH":"12678","ARG_OF_PERICENTER":"74.8082","MEAN_MOTION_DOT":"0.00002356","TLE_LINE2":"2 47839  53.0549  16.5149 0001096  74.8082 285.3028 15.06397825126788","ECCENTRICITY":"0.00010960","PERIAPSIS":"546.461","MEAN_ELEMENT_THEORY":"SGP4","MEAN_ANOMALY":"285.3028","APOAPSIS":"547.979","LAUNCH_DATE":"2021-03-11","REF_FRAME":"TEME","GP_ID":"234093524","NORAD_CAT_ID":"47839","FILE":"3934949","RCS_SIZE":"LARGE"},{"PERIAPSIS":"546.232","MEAN_ANOMALY":"274.8085","MEAN_ELEMENT_THEORY":"SGP4","ECCENTRICITY":"0.00013240","LAUNCH_DATE":"2021-03-11","APOAPSIS":"548.066","GP_ID":"234093773","REF_FRAME":"TEME","FILE":"3934949","RCS_SIZE":"LARGE","NORAD_CAT_ID":"47840","ARG_OF_PERICENTER":"85.3055","REV_AT_EPOCH":"12663","TIME_SYSTEM":"UTC","OBJECT_NAME":"STARLINK-2432","MEAN_MOTION_DOT":"0.00012928","TLE_LINE2":"2 47840  53.0547  26.4681 0001324  85.3055 274.8085 15.06421064126633","COUNTRY_CODE":"US","CLASSIFICATION_TYPE":"U","OBJECT_ID":"2021-018BF","RA_OF_ASC_NODE":"26.4681","TLE_LINE1":"1 47840U 21018BF  23167.88091536  .00012928  00000-0  88468-3 0  9993","SEMIMAJOR_AXIS":"6925.284","ELEMENT_SET_NO":"999","CENTER_NAME":"EARTH","SITE":"AFETR","MEAN_MOTION_DDOT":"0.0000000000000","DECAY_DATE":null,"EPHEMERIS_TYPE":"0","EPOCH":"2023-06-16T21:08:31.087104","MEAN_MOTION":"15.06421064","OBJECT_TYPE":"PAYLOAD","INCLINATION":"53.0547","BSTAR":"0.00088468000000","PERIOD":"95.591"},{"COUNTRY_CODE":"US","CLASSIFICATION_TYPE":"U","OBJECT_ID":"2021-018BG","RA_OF_ASC_NODE":"26.4874","TLE_LINE1":"1 47841U 21018BG  23167.87724217  .00015962  00000-0  10883-2 0  9998","SEMIMAJOR_AXIS":"6925.375","ELEMENT_SET_NO":"999","CENTER_NAME":"EARTH","SITE":"AFETR","MEAN_MOTION_DDOT":"0.0000000000000","DECAY_DATE":null,"EPHEMERIS_TYPE":"0","EPOCH":"2023-06-16T21:03:13.723488","MEAN_MOTION":"15.06391273","OBJECT_TYPE":"PAYLOAD","INCLINATION":"53.0540","BSTAR":"0.00108830000000","PERIOD":"95.593","PERIAPSIS":"546.767","MEAN_ANOMALY":"296.4676","MEAN_ELEMENT_THEORY":"SGP4","ECCENTRICITY":"0.00006830","LAUNCH_DATE":"2021-03-11","APOAPSIS":"547.713","GP_ID":"234094013","REF_FRAME":"TEME","RCS_SIZE":"LARGE","FILE":"3934949","NORAD_CAT_ID":"47841","ARG_OF_PERICENTER":"63.6383","REV_AT_EPOCH":"12663","TIME_SYSTEM":"UTC","OBJECT_NAME":"STARLINK-2433","MEAN_MOTION_DOT":"0.00015962","TLE_LINE2":"2 47841  53.0540  26.4874 0000683  63.6383 296.4676 15.06391273126635"},{"MEAN_MOTION_DOT":"-0.00001841","TLE_LINE2":"2 47842  53.0554  56.8401 0000795 100.2105 259.8974 15.06393971126257","ARG_OF_PERICENTER":"100.2105","REV_AT_EPOCH":"12625","TIME_SYSTEM":"UTC","OBJECT_NAME":"STARLINK-2434","GP_ID":"234092775","REF_FRAME":"TEME","NORAD_CAT_ID":"47842","FILE":"3934949","RCS_SIZE":"LARGE","PERIAPSIS":"546.681","MEAN_ANOMALY":"259.8974","MEAN_ELEMENT_THEORY":"SGP4","ECCENTRICITY":"0.00007950","LAUNCH_DATE":"2021-03-11","APOAPSIS":"547.783","EPHEMERIS_TYPE":"0","EPOCH":"2023-06-16T19:07:46.872192","MEAN_MOTION":"15.06393971","OBJECT_TYPE":"PAYLOAD","INCLINATION":"53.0554","BSTAR":"-0.00010478000000","PERIOD":"95.593","SEMIMAJOR_AXIS":"6925.367","TLE_LINE1":"1 47842U 21018BH  23167.79707028 -.00001841  00000-0 -10478-3 0  9995","CENTER_NAME":"EARTH","ELEMENT_SET_NO":"999","SITE":"AFETR","MEAN_MOTION_DDOT":"0.0000000000000","DECAY_DATE":null,"OBJECT_ID":"2021-018BH","RA_OF_ASC_NODE":"56.8401","COUNTRY_CODE":"US","CLASSIFICATION_TYPE":"U"},{"APOAPSIS":"548.054","LAUNCH_DATE":"2021-03-11","MEAN_ANOMALY":"257.5579","PERIAPSIS":"546.268","MEAN_ELEMENT_THEORY":"SGP4","ECCENTRICITY":"0.00012890","NORAD_CAT_ID":"47843","FILE":"3934949","RCS_SIZE":"LARGE","REF_FRAME":"TEME","GP_ID":"234093025","TIME_SYSTEM":"UTC","OBJECT_NAME":"STARLINK-2435","ARG_OF_PERICENTER":"102.5555","REV_AT_EPOCH":"12627","TLE_LINE2":"2 47843  53.0549  52.2594 0001289 102.5555 257.5579 15.06417174126278","MEAN_MOTION_DOT":"0.00009689","CLASSIFICATION_TYPE":"U","COUNTRY_CODE":"US","RA_OF_ASC_NODE":"52.2594","OBJECT_ID":"2021-018BJ","DECAY_DATE":null,"ELEMENT_SET_NO":"999","CENTER_NAME":"EARTH","MEAN_MOTION_DDOT":"0.0000000000000","SITE":"AFETR","TLE_LINE1":"1 47843U 21018BJ  23167.70353414  .00009689  00000-0  66813-3 0  9993","SEMIMAJOR_AXIS":"6925.296","BSTAR":"0.00066813000000","PERIOD":"95.591","OBJECT_TYPE":"PAYLOAD","INCLINATION":"53.0549","MEAN_MOTION":"15.06417174","EPOCH":"2023-06-16T16:53:05.349696","EPHEMERIS_TYPE":"0"},{"DECAY_DATE":null,"SITE":"AFETR","MEAN_MOTION_DDOT":"0.0000000000000","ELEMENT_SET_NO":"999","CENTER_NAME":"EARTH","TLE_LINE1":"1 47844U 21018BK  23167.76850281  .00014218  00000-0  97155-3 0  9991","SEMIMAJOR_AXIS":"6925.358","PERIOD":"95.592","BSTAR":"0.00097155000000","INCLINATION":"53.0546","OBJECT_TYPE":"PAYLOAD","MEAN_MOTION":"15.06396986","EPOCH":"2023-06-16T18:26:38.642784","EPHEMERIS_TYPE":"0","CLASSIFICATION_TYPE":"U","COUNTRY_CODE":"US","RA_OF_ASC_NODE":"46.9720","OBJECT_ID":"2021-018BK","OBJECT_NAME":"STARLINK-2446","TIME_SYSTEM":"UTC","REV_AT_EPOCH":"12633","ARG_OF_PERICENTER":"89.1240","TLE_LINE2":"2 47844  53.0546  46.9720 0001339  89.1240 270.9903 15.06396986126338","MEAN_MOTION_DOT":"0.00014218","APOAPSIS":"548.150","LAUNCH_DATE":"2021-03-11","ECCENTRICITY":"0.00013390","PERIAPSIS":"546.295","MEAN_ANOMALY":"270.9903","MEAN_ELEMENT_THEORY":"SGP4","RCS_SIZE":"LARGE","FILE":"3934949","NORAD_CAT_ID":"47844","REF_FRAME":"TEME","GP_ID":"234094273"},{"COUNTRY_CODE":"US","CLASSIFICATION_TYPE":"U","OBJECT_ID":"2021-018BL","RA_OF_ASC_NODE":"47.4876","SEMIMAJOR_AXIS":"6925.364","TLE_LINE1":"1 47845U 21018BL  23167.65424335  .00000105  00000-0  25920-4 0  9999","ELEMENT_SET_NO":"999","CENTER_NAME":"EARTH","MEAN_MOTION_DDOT":"0.0000000000000","SITE":"AFETR","DECAY_DATE":null,"EPHEMERIS_TYPE":"0","EPOCH":"2023-06-16T15:42:06.625440","MEAN_MOTION":"15.06394951","OBJECT_TYPE":"PAYLOAD","INCLINATION":"53.0544","BSTAR":"0.00002592000000","PERIOD":"95.592","PERIAPSIS":"546.387","MEAN_ANOMALY":"273.5213","MEAN_ELEMENT_THEORY":"SGP4","ECCENTRICITY":"0.00012160","LAUNCH_DATE":"2021-03-11","APOAPSIS":"548.071","GP_ID":"234094513","REF_FRAME":"TEME","RCS_SIZE":"LARGE","FILE":"3934949","NORAD_CAT_ID":"47845","ARG_OF_PERICENTER":"86.5915","REV_AT_EPOCH":"12632","TIME_SYSTEM":"UTC","OBJECT_NAME":"STARLINK-2453","MEAN_MOTION_DOT":"0.00000105","TLE_LINE2":"2 47845  53.0544  47.4876 0001216  86.5915 273.5213 15.06394951126321"},{"MEAN_MOTION":"15.06406590","EPOCH":"2023-06-16T18:46:30.744192","EPHEMERIS_TYPE":"0","PERIOD":"95.592","BSTAR":"0.00128180000000","INCLINATION":"53.0553","OBJECT_TYPE":"PAYLOAD","SITE":"AFETR","MEAN_MOTION_DDOT":"0.0000000000000","ELEMENT_SET_NO":"999","CENTER_NAME":"EARTH","TLE_LINE1":"1 47846U 21018BM  23167.78230028  .00018866  00000-0  12818-2 0  9991","SEMIMAJOR_AXIS":"6925.328","DECAY_DATE":null,"OBJECT_ID":"2021-018BM","RA_OF_ASC_NODE":"46.9027","CLASSIFICATION_TYPE":"U","COUNTRY_CODE":"US","MEAN_MOTION_DOT":"0.00018866","TLE_LINE2":"2 47846  53.0553  46.9027 0000534 154.2716 205.8300 15.06406590126393","OBJECT_NAME":"STARLINK-2456","TIME_SYSTEM":"UTC","REV_AT_EPOCH":"12639","ARG_OF_PERICENTER":"154.2716","REF_FRAME":"TEME","GP_ID":"234093275","FILE":"3934949","NORAD_CAT_ID":"47846","RCS_SIZE":"LARGE","ECCENTRICITY":"0.00005340","MEAN_ANOMALY":"205.8300","PERIAPSIS":"546.824","MEAN_ELEMENT_THEORY":"SGP4","APOAPSIS":"547.563","LAUNCH_DATE":"2021-03-11"}];
